0 THOR ABLESTAR DEB
1 15783U 61015LG  13281.63672578  .00001362  00000-0  36848-3 0  1059
2 15783 067.0449 338.7972 0061174 124.8137 315.1222 14.49698141506925
0 THOR ABLESTAR DEB
1 15783U 61015LG  13285.58394023  .00001568  00000-0  42049-3 0  1073
2 15783 067.0445 328.2873 0060886 121.2504 035.7328 14.49715666507490
0 THOR ABLESTAR DEB
1 15783U 61015LG  13288.11268698  .00002556  00000-0  67042-3 0  1082
2 15783 067.0442 321.5536 0060677 118.9358 273.4640 14.49728287507869
0 THOR ABLESTAR DEB
1 15783U 61015LG  13290.18961355  .00002444  00000-0  64201-3 0  1093
2 15783 067.0447 316.0256 0060636 117.2244 313.0145 14.49734903508160
0 THOR ABLESTAR DEB
1 15783U 61015LG  13292.19014552  .00002293  00000-0  60382-3 0  1104
2 15783 067.0447 310.6977 0060524 115.3824 314.1117 14.49742622508459
0 THOR ABLESTAR DEB
1 15783U 61015LG  13294.48241119  .00002848  00000-0  74411-3 0  1114
2 15783 067.0450 304.5929 0060467 113.3048 037.8533 14.49751718508787
